STARS (KUKAI)           
1 33498U 09002G   22230.92079181  .00001289  00000+0  17691-3 0  9990
2 33498  98.1607 123.9633 0011920  54.6573 305.5750 14.80125406730679
KKS-1 (KISEKI)          
1 33499U 09002H   22230.87950295  .00000624  00000+0  98207-4 0  9994
2 33499  98.2088 113.9362 0010244 112.0097 248.2201 14.76088811729451
NOAA 19                 
1 33591U 09005A   22231.17632039  .00000139  00000+0  10023-3 0  9997
2 33591  99.1443 266.6188 0014091  16.3583 343.8040 14.12599991697308
SWISSCUBE               
1 35932U 09051B   22230.53083671  .00000506  00000+0  12351-3 0  9994
2 35932  98.5622  88.1835 0006716 209.6212 150.4606 14.56928711685174
BEESAT-1                
1 35933U 09051C   22230.34804000  .00000489  00000+0  11969-3 0  9995
2 35933  98.5560  89.5823 0004726 222.1811 137.9023 14.56937131685261
ITUPSAT1                
1 35935U 09051E   22231.15932870  .00000399  00000+0  10172-3 0  9999
2 35935  98.5660  90.4545 0007017 225.7856 134.2765 14.56041355685032
XIWANG-1 (HOPE-1)       
1 36122U 09072B   22230.67001352 -.00000039  00000+0  92051-5 0  9999
2 36122 100.1880 199.7593 0007220 193.0622 167.0305 13.16370970608992
CARTOSAT-2B             
1 36795U 10035A   22231.11948242 -.00001018  00000+0 -13162-3 0  9997
2 36795  97.9555 290.8070 0014627  45.2581 314.9966 14.78639336653320
TISAT 1                 
1 36799U 10035E   22230.51256423  .00001779  00000+0  17645-3 0  9999
2 36799  98.1769  83.3938 0010404 250.6113 109.3981 14.93126278657223
FENGYUN 3B              
1 37214U 10059A   22231.10475102  .00000021  00000+0  34968-4 0  9998
2 37214  99.0932 238.1924 0022194 175.8857 184.2500 14.14262628609819
JUGNU                   
1 37839U 11058B   22231.12033887  .00000396  00000+0  68868-4 0  9994
2 37839  19.9601 155.3590 0019086 127.9062 258.5264 14.12799501561123
SRMSAT                  
1 37841U 11058D   22230.73705937  .00000364  00000+0  54802-4 0  9993
2 37841  19.9707 238.4370 0011695 309.0817 208.8953 14.10766211560044
M-CUBED & EXP-1 PRIME   
1 37855U 11061F   22230.67451339  .00011373  00000+0  48901-3 0  9993
2 37855 101.7175  22.7501 0151119 235.7842 122.8977 15.13196098590641
HORYU-2                 
1 38340U 12025D   22230.20841317  .00001216  00000+0  18097-3 0  9990
2 38340  98.1924 309.5228 0011985  36.1822 324.0196 14.76773184541359
METOP-B                 
1 38771U 12049A   22231.20284031  .00000052  00000+0  43829-4 0  9998
2 38771  98.6912 290.0132 0000779 135.3097 292.0151 14.21502111514649
SARAL                   
1 39086U 13009A   22230.85360343  .00000066  00000+0  40631-4 0  9999
2 39086  98.5491  55.5678 0002329  86.9473 273.1977 14.32057401495419
AAUSAT 3                
1 39087U 13009B   22231.11534624  .00000323  00000+0  12526-3 0  9992
2 39087  98.3989  69.0889 0013763  78.8072 281.4655 14.36227079496570
