[{"OBJECT_NAME":"STARS (KUKAI)","OBJECT_ID":"2009-002G","EPOCH":"2022-08-18T22:05:56.412384","MEAN_MOTION":14.80125406,"ECCENTRICITY":0.001192,"INCLINATION":98.1607,"RA_OF_ASC_NODE":123.9633,"ARG_OF_PERICENTER":54.6573,"MEAN_ANOMALY":305.575,"EPHEMERIS_TYPE":0,"CLASSIFICATION_TYPE":"U","NORAD_CAT_ID":33498,"ELEMENT_SET_NO":999,"REV_AT_EPOCH":73067,"BSTAR":0.00017691,"MEAN_MOTION_DOT":1.289e-5,"MEAN_MOTION_DDOT":0},{"OBJECT_NAME":"KKS-1 (KISEKI)","OBJECT_ID":"2009-002H","EPOCH":"2022-08-18T21:06:29.054880","MEAN_MOTION":14.76088811,"ECCENTRICITY":0.0010244,"INCLINATION":98.2088,"RA_OF_ASC_NODE":113.9362,"ARG_OF_PERICENTER":112.0097,"MEAN_ANOMALY":248.2201,"EPHEMERIS_TYPE":0,"CLASSIFICATION_TYPE":"U","NORAD_CAT_ID":33499,"ELEMENT_SET_NO":999,"REV_AT_EPOCH":72945,"BSTAR":9.8207e-5,"MEAN_MOTION_DOT":6.24e-6,"MEAN_MOTION_DDOT":0},{"OBJECT_NAME":"NOAA 19","OBJECT_ID":"2009-005A","EPOCH":"2022-08-19T04:13:54.081696","MEAN_MOTION":14.12599991,"ECCENTRICITY":0.0014091,"INCLINATION":99.1443,"RA_OF_ASC_NODE":266.6188,"ARG_OF_PERICENTER":16.3583,"MEAN_ANOMALY":343.804,"EPHEMERIS_TYPE":0,"CLASSIFICATION_TYPE":"U","NORAD_CAT_ID":33591,"ELEMENT_SET_NO":999,"REV_AT_EPOCH":69730,"BSTAR":0.00010023,"MEAN_MOTION_DOT":1.39e-6,"MEAN_MOTION_DDOT":0},{"OBJECT_NAME":"SWISSCUBE","OBJECT_ID":"2009-051B","EPOCH":"2022-08-18T12:44:24.291744","MEAN_MOTION":14.56928711,"ECCENTRICITY":0.0006716,"INCLINATION":98.5622,"RA_OF_ASC_NODE":88.1835,"ARG_OF_PERICENTER":209.6212,"MEAN_ANOMALY":150.4606,"EPHEMERIS_TYPE":0,"CLASSIFICATION_TYPE":"U","NORAD_CAT_ID":35932,"ELEMENT_SET_NO":999,"REV_AT_EPOCH":68517,"BSTAR":0.00012351,"MEAN_MOTION_DOT":5.06e-6,"MEAN_MOTION_DDOT":0},{"OBJECT_NAME":"BEESAT-1","OBJECT_ID":"2009-051C","EPOCH":"2022-08-18T08:21:10.656000","MEAN_MOTION":14.56937131,"ECCENTRICITY":0.0004726,"INCLINATION":98.556,"RA_OF_ASC_NODE":89.5823,"ARG_OF_PERICENTER":222.1811,"MEAN_ANOMALY":137.9023,"EPHEMERIS_TYPE":0,"CLASSIFICATION_TYPE":"U","NORAD_CAT_ID":35933,"ELEMENT_SET_NO":999,"REV_AT_EPOCH":68526,"BSTAR":0.00011969,"MEAN_MOTION_DOT":4.89e-6,"MEAN_MOTION_DDOT":0},{"OBJECT_NAME":"ITUPSAT1","OBJECT_ID":"2009-051E","EPOCH":"2022-08-19T03:49:25.999680","MEAN_MOTION":14.56041355,"ECCENTRICITY":0.0007017,"INCLINATION":98.566,"RA_OF_ASC_NODE":90.4545,"ARG_OF_PERICENTER":225.7856,"MEAN_ANOMALY":134.2765,"EPHEMERIS_TYPE":0,"CLASSIFICATION_TYPE":"U","NORAD_CAT_ID":35935,"ELEMENT_SET_NO":999,"REV_AT_EPOCH":68503,"BSTAR":0.00010172,"MEAN_MOTION_DOT":3.99e-6,"MEAN_MOTION_DDOT":0},{"OBJECT_NAME":"XIWANG-1 (HOPE-1)","OBJECT_ID":"2009-072B","EPOCH":"2022-08-18T16:04:49.168128","MEAN_MOTION":13.1637097,"ECCENTRICITY":0.000722,"INCLINATION":100.188,"RA_OF_ASC_NODE":199.7593,"ARG_OF_PERICENTER":193.0622,"MEAN_ANOMALY":167.0305,"EPHEMERIS_TYPE":0,"CLASSIFICATION_TYPE":"U","NORAD_CAT_ID":36122,"ELEMENT_SET_NO":999,"REV_AT_EPOCH":60899,"BSTAR":9.2051e-6,"MEAN_MOTION_DOT":-3.9e-7,"MEAN_MOTION_DDOT":0},{"OBJECT_NAME":"CARTOSAT-2B","OBJECT_ID":"2010-035A","EPOCH":"2022-08-19T02:52:03.281088","MEAN_MOTION":14.78639336,"ECCENTRICITY":0.0014627,"INCLINATION":97.9555,"RA_OF_ASC_NODE":290.807,"ARG_OF_PERICENTER":45.2581,"MEAN_ANOMALY":314.9966,"EPHEMERIS_TYPE":0,"CLASSIFICATION_TYPE":"U","NORAD_CAT_ID":36795,"ELEMENT_SET_NO":999,"REV_AT_EPOCH":65332,"BSTAR":-0.00013162,"MEAN_MOTION_DOT":-1.018e-5,"MEAN_MOTION_DDOT":0},{"OBJECT_NAME":"TISAT 1","OBJECT_ID":"2010-035E","EPOCH":"2022-08-18T12:18:05.549472","MEAN_MOTION":14.93126278,"ECCENTRICITY":0.0010404,"INCLINATION":98.1769,"RA_OF_ASC_NODE":83.3938,"ARG_OF_PERICENTER":250.6113,"MEAN_ANOMALY":109.3981,"EPHEMERIS_TYPE":0,"CLASSIFICATION_TYPE":"U","NORAD_CAT_ID":36799,"ELEMENT_SET_NO":999,"REV_AT_EPOCH":65722,"BSTAR":0.00017645,"MEAN_MOTION_DOT":1.779e-5,"MEAN_MOTION_DDOT":0},{"OBJECT_NAME":"FENGYUN 3B","OBJECT_ID":"2010-059A","EPOCH":"2022-08-19T02:30:50.488128","MEAN_MOTION":14.14262628,"ECCENTRICITY":0.0022194,"INCLINATION":99.0932,"RA_OF_ASC_NODE":238.1924,"ARG_OF_PERICENTER":175.8857,"MEAN_ANOMALY":184.25,"EPHEMERIS_TYPE":0,"CLASSIFICATION_TYPE":"U","NORAD_CAT_ID":37214,"ELEMENT_SET_NO":999,"REV_AT_EPOCH":60981,"BSTAR":3.4968e-5,"MEAN_MOTION_DOT":2.1e-7,"MEAN_MOTION_DDOT":0},{"OBJECT_NAME":"JUGNU","OBJECT_ID":"2011-058B","EPOCH":"2022-08-19T02:53:17.278368","MEAN_MOTION":14.12799501,"ECCENTRICITY":0.0019086,"INCLINATION":19.9601,"RA_OF_ASC_NODE":155.359,"ARG_OF_PERICENTER":127.9062,"MEAN_ANOMALY":258.5264,"EPHEMERIS_TYPE":0,"CLASSIFICATION_TYPE":"U","NORAD_CAT_ID":37839,"ELEMENT_SET_NO":999,"REV_AT_EPOCH":56112,"BSTAR":6.8868e-5,"MEAN_MOTION_DOT":3.96e-6,"MEAN_MOTION_DDOT":0},{"OBJECT_NAME":"SRMSAT","OBJECT_ID":"2011-058D","EPOCH":"2022-08-18T17:41:21.929568","MEAN_MOTION":14.10766211,"ECCENTRICITY":0.0011695,"INCLINATION":19.9707,"RA_OF_ASC_NODE":238.437,"ARG_OF_PERICENTER":309.0817,"MEAN_ANOMALY":208.8953,"EPHEMERIS_TYPE":0,"CLASSIFICATION_TYPE":"U","NORAD_CAT_ID":37841,"ELEMENT_SET_NO":999,"REV_AT_EPOCH":56004,"BSTAR":5.4802e-5,"MEAN_MOTION_DOT":3.64e-6,"MEAN_MOTION_DDOT":0},{"OBJECT_NAME":"M-CUBED & EXP-1 PRIME","OBJECT_ID":"2011-061F","EPOCH":"2022-08-18T16:11:17.956896","MEAN_MOTION":15.13196098,"ECCENTRICITY":0.0151119,"INCLINATION":101.7175,"RA_OF_ASC_NODE":22.7501,"ARG_OF_PERICENTER":235.7842,"MEAN_ANOMALY":122.8977,"EPHEMERIS_TYPE":0,"CLASSIFICATION_TYPE":"U","NORAD_CAT_ID":37855,"ELEMENT_SET_NO":999,"REV_AT_EPOCH":59064,"BSTAR":0.00048901,"MEAN_MOTION_DOT":0.00011373,"MEAN_MOTION_DDOT":0},{"OBJECT_NAME":"HORYU-2","OBJECT_ID":"2012-025D","EPOCH":"2022-08-18T05:00:06.897888","MEAN_MOTION":14.76773184,"ECCENTRICITY":0.0011985,"INCLINATION":98.1924,"RA_OF_ASC_NODE":309.5228,"ARG_OF_PERICENTER":36.1822,"MEAN_ANOMALY":324.0196,"EPHEMERIS_TYPE":0,"CLASSIFICATION_TYPE":"U","NORAD_CAT_ID":38340,"ELEMENT_SET_NO":999,"REV_AT_EPOCH":54135,"BSTAR":0.00018097,"MEAN_MOTION_DOT":1.216e-5,"MEAN_MOTION_DDOT":0},{"OBJECT_NAME":"METOP-B","OBJECT_ID":"2012-049A","EPOCH":"2022-08-19T04:52:05.402784","MEAN_MOTION":14.21502111,"ECCENTRICITY":7.79e-5,"INCLINATION":98.6912,"RA_OF_ASC_NODE":290.0132,"ARG_OF_PERICENTER":135.3097,"MEAN_ANOMALY":292.0151,"EPHEMERIS_TYPE":0,"CLASSIFICATION_TYPE":"U","NORAD_CAT_ID":38771,"ELEMENT_SET_NO":999,"REV_AT_EPOCH":51464,"BSTAR":4.3829e-5,"MEAN_MOTION_DOT":5.2e-7,"MEAN_MOTION_DDOT":0},{"OBJECT_NAME":"SARAL","OBJECT_ID":"2013-009A","EPOCH":"2022-08-18T20:29:11.336352","MEAN_MOTION":14.32057401,"ECCENTRICITY":0.0002329,"INCLINATION":98.5491,"RA_OF_ASC_NODE":55.5678,"ARG_OF_PERICENTER":86.9473,"MEAN_ANOMALY":273.1977,"EPHEMERIS_TYPE":0,"CLASSIFICATION_TYPE":"U","NORAD_CAT_ID":39086,"ELEMENT_SET_NO":999,"REV_AT_EPOCH":49541,"BSTAR":4.0631e-5,"MEAN_MOTION_DOT":6.6e-7,"MEAN_MOTION_DDOT":0},{"OBJECT_NAME":"AAUSAT 3","OBJECT_ID":"2013-009B","EPOCH":"2022-08-19T02:46:05.915136","MEAN_MOTION":14.36227079,"ECCENTRICITY":0.0013763,"INCLINATION":98.3989,"RA_OF_ASC_NODE":69.0889,"ARG_OF_PERICENTER":78.8072,"MEAN_ANOMALY":281.4655,"EPHEMERIS_TYPE":0,"CLASSIFICATION_TYPE":"U","NORAD_CAT_ID":39087,"ELEMENT_SET_NO":999,"REV_AT_EPOCH":49657,"BSTAR":0.00012526,"MEAN_MOTION_DOT":3.23e-6,"MEAN_MOTION_DDOT":0}]